[{"OBJECT_NAME":"OBJECT L","OBJECT_ID":"2023-085L","EPOCH":"2026-03-09T23:02:21.999840","MEAN_MOTION":15.29079976,"ECCENTRICITY":0.0005428,"INCLINATION":97.486,"RA_OF_ASC_NODE":178.8598,"ARG_OF_PERICENTER":50.8528,"MEAN_ANOMALY":309.3193,"EPHEMERIS_TYPE":0,"CLASSIFICATION_TYPE":"U","NORAD_CAT_ID":57014,"ELEMENT_SET_NO":999,"REV_AT_EPOCH":15144,"BSTAR":0.00063462603,"MEAN_MOTION_DOT":0.00017871,"MEAN_MOTION_DDOT":0},{"OBJECT_NAME":"STARLINK-32467","OBJECT_ID":"2024-196G","EPOCH":"2026-03-09T12:07:49.640160","MEAN_MOTION":15.30191382,"ECCENTRICITY":0.00013009,"INCLINATION":53.1605,"RA_OF_ASC_NODE":102.5327,"ARG_OF_PERICENTER":81.9026,"MEAN_ANOMALY":278.2122,"EPHEMERIS_TYPE":0,"CLASSIFICATION_TYPE":"U","NORAD_CAT_ID":61713,"ELEMENT_SET_NO":999,"REV_AT_EPOCH":7712,"BSTAR":3.288037e-5,"MEAN_MOTION_DOT":6.14e-6,"MEAN_MOTION_DDOT":0}]
